NORAD_CAT_ID,OBJECT_NAME,OBJECT_TYPE,EPOCH,MEAN_MOTION,ECCENTRICITY,INCLINATION,RA_OF_ASC_NODE,ARG_OF_PERICENTER,MEAN_ANOMALY,BSTAR,MEAN_MOTION_DOT,MEAN_MOTION_DDOT,TLE_LINE0,TLE_LINE1,TLE_LINE2,SEMIMAJOR_AXIS,PERIOD,APOGEE,PERIGEE,DECAYED
55958.0,STARLINK-5928,PAYLOAD,2023-11-21 02:54:52,14.9834708,0.000221,70.0012,221.3163,278.984,81.1068,0.0001422,1.605e-05,0.0,0 STARLINK-5928,1 55958U 23037AW  23325.12143890  .00001605  00000-0  14220-3 0  9994,2 55958  70.0012 221.3163 0002210 278.9840  81.1068 14.98347080 39050,6950.14,96.106,573.541,570.469,0.0
55958.0,STARLINK-5928,PAYLOAD,2023-11-21 10:55:32,14.98343218,0.0002205,70.0022,220.4763,277.9528,82.1381,0.00015166,1.718e-05,0.0,0 STARLINK-5928,1 55958U 23037AW  23325.45523797  .00001718  00000-0  15166-3 0  9993,2 55958  70.0022 220.4763 0002205 277.9528  82.1381 14.98343218 38768,6950.152,96.106,573.55,570.485,0.0
55958.0,STARLINK-5928,PAYLOAD,2023-11-21 20:32:20,14.98344081,0.000256,70.0006,219.4665,274.5899,85.4967,0.00012749,1.429e-05,0.0,0 STARLINK-5928,1 55958U 23037AW  23325.85579334  .00001429  00000-0  12749-3 0  9998,2 55958  70.0006 219.4665 0002560 274.5899  85.4967 14.98344081 38829,6950.149,96.106,573.794,570.235,0.0
55958.0,STARLINK-5928,PAYLOAD,2023-11-22 02:56:52,14.98346356,0.0002468,70.0008,218.7929,272.9283,87.1594,0.00014565,1.646e-05,0.0,0 STARLINK-5928,1 55958U 23037AW  23326.12282898  .00001646  00000-0  14565-3 0  9994,2 55958  70.0008 218.7929 0002468 272.9283  87.1594 14.98346356 39207,6950.142,96.106,573.723,570.292,0.0
55958.0,STARLINK-5928,PAYLOAD,2023-11-22 18:58:14,14.9832474,0.0002863,69.9998,217.1085,265.3143,94.7689,-9.0299e-05,-1.17e-05,0.0,0 STARLINK-5928,1 55958U 23037AW  23326.79044595 -.00001170  00000-0 -90299-4 0  9990,2 55958  69.9998 217.1085 0002863 265.3143  94.7689 14.98324740 39301,6950.209,96.107,574.064,570.084,0.0
55958.0,STARLINK-5928,PAYLOAD,2023-11-22 20:34:22,14.98324252,0.0002887,69.9998,216.9399,266.7876,93.2952,-9.932e-05,-1.278e-05,0.0,0 STARLINK-5928,1 55958U 23037AW  23326.85720673 -.00001278  00000-0 -99320-4 0  9998,2 55958  69.9998 216.9399 0002887 266.7876  93.2952 14.98324252 38977,6950.211,96.107,574.082,570.069,0.0
55958.0,STARLINK-5928,PAYLOAD,2023-11-23 02:58:54,14.98324047,0.0002762,70.0004,216.2685,255.9887,104.0965,-9.4904e-05,-1.225e-05,0.0,0 STARLINK-5928,1 55958U 23037AW  23327.12424695 -.00001225  00000-0 -94904-4 0  9999,2 55958  70.0004 216.2685 0002762 255.9887 104.0965 14.98324047 39016,6950.211,96.107,573.996,570.157,0.0
55958.0,STARLINK-5928,PAYLOAD,2023-11-23 19:00:16,14.98323457,0.0002666,70.0005,214.5859,262.1264,97.9593,-0.00024556,-3.021e-05,0.0,0 STARLINK-5928,1 55958U 23037AW  23327.79185349 -.00003021  00000-0 -24556-3 0  9993,2 55958  70.0005 214.5859 0002666 262.1264  97.9593 14.98323457 39452,6950.213,96.107,573.931,570.225,0.0
55958.0,STARLINK-5928,PAYLOAD,2023-11-23 22:12:32,14.98322715,0.0002677,70.0007,214.2497,261.1588,98.9268,-0.0002234,-2.757e-05,0.0,0 STARLINK-5928,1 55958U 23037AW  23327.92537386 -.00002757  00000-0 -22340-3 0  9994,2 55958  70.0007 214.2497 0002677 261.1588  98.9268 14.98322715 39130,6950.215,96.107,573.941,570.22,0.0
55958.0,STARLINK-5928,PAYLOAD,2023-11-24 03:00:56,14.98322053,0.0002446,70.001,213.7436,264.8446,95.2434,-0.00020137,-2.494e-05,0.0,0 STARLINK-5928,1 55958U 23037AW  23328.12565561 -.00002494  00000-0 -20137-3 0  9993,2 55958  70.0010 213.7436 0002446 264.8446  95.2434 14.98322053 39161,6950.217,96.108,573.782,570.382,0.0
55958.0,STARLINK-5928,PAYLOAD,2023-11-24 19:02:16,14.98319,0.0002812,70.0007,212.0595,260.5065,99.5777,0.00012271,1.371e-05,0.0,0 STARLINK-5928,1 55958U 23037AW  23328.79325076  .00001371  00000-0  12271-3 0  9992,2 55958  70.0007 212.0595 0002812 260.5065  99.5777 14.98319000 39606,6950.227,96.108,574.046,570.138,0.0
55958.0,STARLINK-5928,PAYLOAD,2023-11-24 22:14:32,14.98324954,0.0002817,70.0004,211.7236,249.0851,111.0006,0.00016635,1.892e-05,0.0,0 STARLINK-5928,1 55958U 23037AW  23328.92676606  .00001892  00000-0  16635-3 0  9991,2 55958  70.0004 211.7236 0002817 249.0851 111.0006 14.98324954 39284,6950.208,96.107,574.031,570.116,0.0
55958.0,STARLINK-5928,PAYLOAD,2023-11-25 03:02:57,14.98322444,0.0002647,70.001,211.2187,259.2658,100.8203,0.00017565,2.003e-05,0.0,0 STARLINK-5928,1 55958U 23037AW  23329.12704914  .00002003  00000-0  17565-3 0  9996,2 55958  70.0010 211.2187 0002647 259.2658 100.8203 14.98322444 39311,6950.216,96.107,573.921,570.242,0.0
55958.0,STARLINK-5928,PAYLOAD,2023-11-25 22:16:33,14.98327203,0.0002435,70.0007,209.199,256.8802,103.2085,0.00016948,1.93e-05,0.0,0 STARLINK-5928,1 55958U 23037AW  23329.92816812  .00001930  00000-0  16948-3 0  9997,2 55958  70.0007 209.1990 0002435 256.8802 103.2085 14.98327203 39430,6950.202,96.107,573.759,570.374,0.0
55958.0,STARLINK-5928,PAYLOAD,2023-11-26 01:28:49,14.98331329,0.0002343,70.0012,208.8636,253.1676,106.9226,0.00022351,2.575e-05,0.0,0 STARLINK-5928,1 55958U 23037AW  23330.06168444  .00002575  00000-0  22351-3 0  9996,2 55958  70.0012 208.8636 0002343 253.1676 106.9226 14.98331329 39459,6950.189,96.107,573.682,570.425,0.0
55958.0,STARLINK-5928,PAYLOAD,2023-11-26 19:06:18,14.98328098,0.000306,70.0037,207.0173,208.1118,151.9876,-5.4071e-05,-7.38e-06,0.0,0 STARLINK-5928,1 55958U 23037AW  23330.79605247 -.00000738  00000-0 -54071-4 0  9999,2 55958  70.0037 207.0173 0003060 208.1118 151.9876 14.98328098 39901,6950.199,96.107,574.191,569.937,0.0
55958.0,STARLINK-5928,PAYLOAD,2023-11-26 22:18:35,14.98326752,0.0002644,70.001,206.6755,242.1121,117.9771,-7.8669e-05,-1.031e-05,0.0,0 STARLINK-5928,1 55958U 23037AW  23330.92957419 -.00001031  00000-0 -78669-4 0  9991,2 55958  70.0010 206.6755 0002644 242.1121 117.9771 14.98326752 39587,6950.203,96.107,573.906,570.23,0.0
55958.0,STARLINK-5928,PAYLOAD,2023-11-27 01:30:51,14.98327291,0.0002826,70.0,206.3376,257.9122,102.1721,-9.0903e-05,-1.177e-05,0.0,0 STARLINK-5928,1 55958U 23037AW  23331.06309485 -.00001177  00000-0 -90903-4 0  9997,2 55958  70.0000 206.3376 0002826 257.9122 102.1721 14.98327291 39602,6950.201,96.107,574.03,570.102,0.0
55958.0,STARLINK-5928,PAYLOAD,2023-11-27 19:08:19,14.98331805,0.0002717,69.9998,204.4855,262.8909,97.1941,-6.4582e-05,-8.63e-06,0.0,0 STARLINK-5928,1 55958U 23037AW  23331.79745226 -.00000863  00000-0 -64582-4 0  9999,2 55958  69.9998 204.4855 0002717 262.8909  97.1941 14.98331805 40057,6950.187,96.107,573.941,570.164,0.0
55958.0,STARLINK-5928,PAYLOAD,2023-11-27 22:20:35,14.9833748,0.0002284,70.001,204.151,237.4956,122.5982,-1.3093e-05,-2.49e-06,0.0,0 STARLINK-5928,1 55958U 23037AW  23331.93096596 -.00000249  00000-0 -13093-4 0  9993,2 55958  70.0010 204.1510 0002284 237.4956 122.5982 14.98337480 39735,6950.17,96.107,573.622,570.447,0.0
55958.0,STARLINK-5928,PAYLOAD,2023-11-28 01:32:50,14.98350617,0.0002578,70.0009,203.8152,234.2196,125.8724,0.00012121,1.354e-05,0.0,0 STARLINK-5928,1 55958U 23037AW  23332.06447170  .00001354  00000-0  12121-3 0  9992,2 55958  70.0009 203.8152 0002578 234.2196 125.8724 14.98350617 40096,6950.129,96.106,573.786,570.202,0.0
55958.0,STARLINK-5928,PAYLOAD,2023-11-28 19:10:20,14.98326938,0.0003039,69.9997,201.9607,269.3156,90.7655,4.7194e-05,4.7e-06,0.0,0 STARLINK-5928,1 55958U 23037AW  23332.79884699  .00000470  00000-0  47194-4 0  9990,2 55958  69.9997 201.9607 0003039 269.3156  90.7655 14.98326938 40206,6950.202,96.107,574.18,569.955,0.0
55958.0,STARLINK-5928,PAYLOAD,2023-11-29 01:34:52,14.98324271,0.0003049,69.9997,201.2872,268.5472,91.5337,9.8687e-06,2.5e-07,0.0,0 STARLINK-5928,1 55958U 23037AW  23333.06589026  .00000025  00000-0  98687-5 0  9997,2 55958  69.9997 201.2872 0003049 268.5472  91.5337 14.98324271 39905,6950.211,96.107,574.195,569.956,0.0
55958.0,STARLINK-5928,PAYLOAD,2023-11-29 19:12:21,14.98328427,0.0002984,69.9997,199.4356,268.4984,91.5834,-2.9074e-05,-4.4e-06,0.0,0 STARLINK-5928,1 55958U 23037AW  23333.80025012 -.00000440  00000-0 -29074-4 0  9995,2 55958  69.9997 199.4356 0002984 268.4984  91.5834 14.98328427 40354,6950.198,96.107,574.137,569.989,0.0
55958.0,STARLINK-5928,PAYLOAD,2023-11-30 01:36:53,14.98335713,0.0003146,69.9999,198.7629,266.983,93.0969,2.2768e-05,1.79e-06,0.0,0 STARLINK-5928,1 55958U 23037AW  23334.06728292  .00000179  00000-0  22768-4 0  9994,2 55958  69.9999 198.7629 0003146 266.9830  93.0969 14.98335713 40391,6950.175,96.107,574.227,569.854,0.0
55958.0,STARLINK-5928,PAYLOAD,2023-11-30 19:14:22,14.98323913,0.0002727,70.0005,196.9117,258.2843,101.801,4.5048e-05,4.44e-06,0.0,0 STARLINK-5928,1 55958U 23037AW  23334.80164823  .00000444  00000-0  45048-4 0  9991,2 55958  70.0005 196.9117 0002727 258.2843 101.8010 14.98323913 40503,6950.212,96.107,573.972,570.181,0.0
55958.0,STARLINK-5928,PAYLOAD,2023-12-01 19:16:23,14.98328866,0.0002592,70.0005,194.3869,255.7617,104.3254,-1.2243e-05,-2.39e-06,0.0,0 STARLINK-5928,1 55958U 23037AW  23335.80304938 -.00000239  00000-0 -12243-4 0  9990,2 55958  70.0005 194.3869 0002592 255.7617 104.3254 14.98328866 40656,6950.196,96.107,573.863,570.26,0.0
55958.0,STARLINK-5928,PAYLOAD,2023-12-01 22:28:39,14.98333631,0.0002519,70.0004,194.0507,251.3223,108.7662,4.6912e-05,4.67e-06,0.0,0 STARLINK-5928,1 55958U 23037AW  23335.93656450  .00000467  00000-0  46912-4 0  9994,2 55958  70.0004 194.0507 0002519 251.3223 108.7662 14.98333631 40337,6950.182,96.107,573.797,570.296,0.0
55958.0,STARLINK-5928,PAYLOAD,2023-12-02 00:04:47,14.98336609,0.0002831,69.9993,193.8822,268.4087,91.6748,5.0354e-05,5.08e-06,0.0,0 STARLINK-5928,1 55958U 23037AW  23336.00332314  .00000508  00000-0  50354-4 0  9994,2 55958  69.9993 193.8822 0002831 268.4087  91.6748 14.98336609 40683,6950.172,96.107,574.005,570.07,0.0
55958.0,STARLINK-5928,PAYLOAD,2023-12-02 19:18:24,14.98329287,0.0002694,69.9997,191.8617,273.5831,86.502,2.2884e-05,1.8e-06,0.0,0 STARLINK-5928,1 55958U 23037AW  23336.80444738  .00000180  00000-0  22884-4 0  9999,2 55958  69.9997 191.8617 0002694 273.5831  86.5020 14.98329287 40802,6950.195,96.107,573.932,570.188,0.0
